{
    "links": {
        "self": "http://www.neowsapp.com/rest/v1/neo/3757285?api_key=iIulBulltgU6a56xZRHN4H3l9WmuAYTsLGpBGhQ2"
    },
    "id": "3757285",
    "neo_reference_id": "3757285",
    "name": "(2016 PJ38)",
    "designation": "2016 PJ38",
    "nasa_jpl_url": "http://ssd.jpl.nasa.gov/sbdb.cgi?sstr=3757285",
    "absolute_magnitude_h": 21.1,
    "estimated_diameter": {
        "kilometers": {
            "estimated_diameter_min": 0.160160338,
            "estimated_diameter_max": 0.358129403
        },
        "meters": {
            "estimated_diameter_min": 160.1603379786,
            "estimated_diameter_max": 358.1294030194
        },
        "miles": {
            "estimated_diameter_min": 0.0995189894,
            "estimated_diameter_max": 0.2225312253
        },
        "feet": {
            "estimated_diameter_min": 525.4604432536,
            "estimated_diameter_max": 1174.9652706022
        }
    },
    "is_potentially_hazardous_asteroid": false,
    "close_approach_data": [
        {
            "close_approach_date": "2000-09-13",
            "close_approach_date_full": "2000-Sep-13 19:31",
            "epoch_date_close_approach": 968873460000,
            "relative_velocity": {
                "kilometers_per_second": "12.3297840661",
                "kilometers_per_hour": "44387.2226380144",
                "miles_per_hour": "27580.4939774929"
            },
            "miss_distance": {
                "astronomical": "0.0774283771",
                "lunar": "30.1196386919",
                "kilometers": "11583120.291716777",
                "miles": "7197417.2006024426"
            },
            "orbiting_body": "Mars"
        },
        {
            "close_approach_date": "2022-01-11",
            "close_approach_date_full": "2022-Jan-11 07:36",
            "epoch_date_close_approach": 1641886560000,
            "relative_velocity": {
                "kilometers_per_second": "13.1299273673",
                "kilometers_per_hour": "47267.7385221619",
                "miles_per_hour": "29370.33452784"
            },
            "miss_distance": {
                "astronomical": "0.4980032816",
                "lunar": "193.7232765424",
                "kilometers": "74500230.180370192",
                "miles": "46292296.4317729696"
            },
            "orbiting_body": "Earth"
        }
    ],
    "orbital_data": {
        "orbit_id": "3",
        "orbit_determination_date": "2017-04-06 08:24:36",
        "first_observation_date": "2016-08-07",
        "last_observation_date": "2016-09-08",
        "data_arc_in_days": 32,
        "observations_used": 14,
        "orbit_uncertainty": "7",
        "minimum_orbit_intersection": ".486829",
        "jupiter_tisserand_invariant": "3.920",
        "epoch_osculation": "2459000.5",
        "eccentricity": ".2978268752124088",
        "semi_major_axis": "1.783330704518035",
        "inclination": "26.30812987633315",
        "ascending_node_longitude": "314.9251698721309",
        "orbital_period": "869.8537849474759",
        "perihelion_distance": "1.252206893321085",
        "perihelion_argument": "93.75959242193167",
        "aphelion_distance": "2.314454515714985",
        "perihelion_time": "2458634.923806511372",
        "mean_anomaly": "151.2983353447762",
        "mean_motion": ".4138626585636317",
        "equinox": "J2000",
        "orbit_class": {
            "orbit_class_type": "AMO",
            "orbit_class_description": "Near-Earth asteroid orbits similar to that of 1221 Amor",
            "orbit_class_range": "1.017 AU < q (perihelion) < 1.3 AU"
        }
    },
    "is_sentry_object": false
}